{
  "norad_id": 45578,
  "name": "STARLINK-1331",
  "history": [
    {
      "epoch": "2026-04-14T20:09:26.877888Z",
      "apogee_km": 406.2606972686044,
      "perigee_km": 399.7792674248776,
      "latitude_deg": 2.0872795224160386e-05,
      "longitude_deg": 105.95157430582955,
      "height_km": 404.57747341023975,
      "semi_major_axis_km": 6781.156982346741,
      "eccentricity": 0.0004779,
      "inclination_deg": 53.0491,
      "raan_deg": 251.3241,
      "arg_perigee_deg": 258.3174,
      "mean_anomaly_deg": 101.73,
      "mean_motion_rev_day": 15.54701668
    },
    {
      "epoch": "2026-04-15T19:17:56.096736Z",
      "apogee_km": 406.03943578278086,
      "perigee_km": 399.4172426924815,
      "latitude_deg": -1.940831586125602e-05,
      "longitude_deg": 113.21871525875402,
      "height_km": 404.0134991648591,
      "semi_major_axis_km": 6780.865339237631,
      "eccentricity": 0.0004883,
      "inclination_deg": 53.0493,
      "raan_deg": 246.6634,
      "arg_perigee_deg": 263.3451,
      "mean_anomaly_deg": 96.7003,
      "mean_motion_rev_day": 15.5480197
    },
    {
      "epoch": "2026-04-16T19:58:53.355072Z",
      "apogee_km": 405.7860383164607,
      "perigee_km": 399.0597229148898,
      "latitude_deg": 2.7608175213601017e-05,
      "longitude_deg": 96.99549879057255,
      "height_km": 403.3553179168906,
      "semi_major_axis_km": 6780.559880615675,
      "eccentricity": 0.000496,
      "inclination_deg": 53.0498,
      "raan_deg": 241.6924,
      "arg_perigee_deg": 269.4746,
      "mean_anomaly_deg": 90.5696,
      "mean_motion_rev_day": 15.54907035
    },
    {
      "epoch": "2026-04-17T20:39:44.733024Z",
      "apogee_km": 405.5426375494035,
      "perigee_km": 398.71043719333557,
      "latitude_deg": 3.4889284605586634e-05,
      "longitude_deg": 80.79632063022449,
      "height_km": 402.7496408581476,
      "semi_major_axis_km": 6780.263537371369,
      "eccentricity": 0.00050383,
      "inclination_deg": 53.0496,
      "raan_deg": 236.7209,
      "arg_perigee_deg": 274.6771,
      "mean_anomaly_deg": 85.3664,
      "mean_motion_rev_day": 15.55008976
    },
    {
      "epoch": "2026-04-18T19:47:57.319008Z",
      "apogee_km": 405.3428319830091,
      "perigee_km": 398.31607475074,
      "latitude_deg": 1.9020066561190483e-06,
      "longitude_deg": 88.13285868852034,
      "height_km": 402.16335074174526,
      "semi_major_axis_km": 6779.966453366875,
      "eccentricity": 0.0005182,
      "inclination_deg": 53.0497,
      "raan_deg": 232.0601,
      "arg_perigee_deg": 279.3014,
      "mean_anomaly_deg": 80.741,
      "mean_motion_rev_day": 15.55111183
    },
    {
      "epoch": "2026-04-19T18:56:04.505856Z",
      "apogee_km": 405.08318821186185,
      "perigee_km": 397.9564129830742,
      "latitude_deg": 4.651534955544676e-06,
      "longitude_deg": 95.49108032315526,
      "height_km": 401.5274766512767,
      "semi_major_axis_km": 6779.656800597468,
      "eccentricity": 0.0005256,
      "inclination_deg": 53.0497,
      "raan_deg": 227.3984,
      "arg_perigee_deg": 284.5318,
      "mean_anomaly_deg": 75.5109,
      "mean_motion_rev_day": 15.55217726
    },
    {
      "epoch": "2026-04-20T13:26:29.082912Z",
      "apogee_km": 404.8136690778656,
      "perigee_km": 397.5451571923577,
      "latitude_deg": -1.3803288685337611e-05,
      "longitude_deg": 173.3996122388168,
      "height_km": 400.8971486247905,
      "semi_major_axis_km": 6779.316413135111,
      "eccentricity": 0.00053608,
      "inclination_deg": 53.0492,
      "raan_deg": 223.6694,
      "arg_perigee_deg": 289.0141,
      "mean_anomaly_deg": 71.0288,
      "mean_motion_rev_day": 15.55334858
    },
    {
      "epoch": "2026-04-21T18:44:27.834144Z",
      "apogee_km": 404.36149328865486,
      "perigee_km": 396.92923630389123,
      "latitude_deg": -1.2732986013750906e-05,
      "longitude_deg": 86.79551922526191,
      "height_km": 400.00830559008006,
      "semi_major_axis_km": 6778.782364796272,
      "eccentricity": 0.0005482,
      "inclination_deg": 53.0486,
      "raan_deg": 217.7634,
      "arg_perigee_deg": 294.462,
      "mean_anomaly_deg": 65.5818,
      "mean_motion_rev_day": 15.55518661
    },
    {
      "epoch": "2026-04-22T17:52:11.976384Z",
      "apogee_km": 404.05170920934233,
      "perigee_km": 396.4341658355552,
      "latitude_deg": -3.826246605979936e-05,
      "longitude_deg": 94.24810040852073,
      "height_km": 399.24905998295117,
      "semi_major_axis_km": 6778.379937522449,
      "eccentricity": 0.0005619,
      "inclination_deg": 53.0487,
      "raan_deg": 213.0998,
      "arg_perigee_deg": 299.8482,
      "mean_anomaly_deg": 60.1969,
      "mean_motion_rev_day": 15.55657188
    },
    {
      "epoch": "2026-04-23T12:22:17.351040Z",
      "apogee_km": 403.787566228928,
      "perigee_km": 395.9153393203369,
      "latitude_deg": 4.706525375582177e-06,
      "longitude_deg": 172.23490729736386,
      "height_km": 398.5374569426505,
      "semi_major_axis_km": 6777.988452774632,
      "eccentricity": 0.00058072,
      "inclination_deg": 53.0485,
      "raan_deg": 209.3688,
      "arg_perigee_deg": 304.2586,
      "mean_anomaly_deg": 55.7874,
      "mean_motion_rev_day": 15.55791968
    },
    {
      "epoch": "2026-04-24T17:39:46.636416Z",
      "apogee_km": 403.4260375730082,
      "perigee_km": 395.37296869998136,
      "latitude_deg": -2.3530812265003236e-06,
      "longitude_deg": 85.75172023993473,
      "height_km": 397.75152046892885,
      "semi_major_axis_km": 6777.5365031364945,
      "eccentricity": 0.0005941,
      "inclination_deg": 53.0484,
      "raan_deg": 203.4606,
      "arg_perigee_deg": 309.2881,
      "mean_anomaly_deg": 50.7602,
      "mean_motion_rev_day": 15.55947589
    },
    {
      "epoch": "2026-04-25T16:47:08.227392Z",
      "apogee_km": 403.1948626100584,
      "perigee_km": 394.922617489754,
      "latitude_deg": -2.7966140290647578e-05,
      "longitude_deg": 93.29672432859311,
      "height_km": 397.1214355265129,
      "semi_major_axis_km": 6777.195740049906,
      "eccentricity": 0.0006103,
      "inclination_deg": 53.0489,
      "raan_deg": 198.7952,
      "arg_perigee_deg": 313.3455,
      "mean_anomaly_deg": 46.7046,
      "mean_motion_rev_day": 15.56064942
    },
    {
      "epoch": "2026-04-26T17:26:51.008928Z",
      "apogee_km": 402.7611453662439,
      "perigee_km": 394.2655299039634,
      "latitude_deg": 2.1850254689616327e-05,
      "longitude_deg": 77.37907800156376,
      "height_km": 396.229626216721,
      "semi_major_axis_km": 6776.650337635103,
      "eccentricity": 0.00062683,
      "inclination_deg": 53.0489,
      "raan_deg": 193.8186,
      "arg_perigee_deg": 318.5795,
      "mean_anomaly_deg": 41.474,
      "mean_motion_rev_day": 15.562528
    },
    {
      "epoch": "2026-04-27T16:33:54.531936Z",
      "apogee_km": 402.2971253404039,
      "perigee_km": 393.6711231492409,
      "latitude_deg": -2.5345702226523897e-05,
      "longitude_deg": 84.99865626126387,
      "height_km": 395.4576560673709,
      "semi_major_axis_km": 6776.121124244823,
      "eccentricity": 0.0006365,
      "inclination_deg": 53.0488,
      "raan_deg": 189.1523,
      "arg_perigee_deg": 322.6361,
      "mean_anomaly_deg": 37.4206,
      "mean_motion_rev_day": 15.56435118
    },
    {
      "epoch": "2026-04-28T15:40:48.061056Z",
      "apogee_km": 401.84907568095423,
      "perigee_km": 393.0015464151884,
      "latitude_deg": -3.6846259353462066e-05,
      "longitude_deg": 92.65921643011617,
      "height_km": 394.61672628907957,
      "semi_major_axis_km": 6775.562311048071,
      "eccentricity": 0.0006529,
      "inclination_deg": 53.049,
      "raan_deg": 184.4852,
      "arg_perigee_deg": 326.9973,
      "mean_anomaly_deg": 33.0629,
      "mean_motion_rev_day": 15.56627672
    },
    {
      "epoch": "2026-04-29T16:19:59.184768Z",
      "apogee_km": 401.45320343558706,
      "perigee_km": 392.39494677816947,
      "latitude_deg": -2.587463691163366e-05,
      "longitude_deg": 76.87130982928156,
      "height_km": 393.8357047425152,
      "semi_major_axis_km": 6775.061075106878,
      "eccentricity": 0.0006685,
      "inclination_deg": 53.0486,
      "raan_deg": 179.5061,
      "arg_perigee_deg": 331.7453,
      "mean_anomaly_deg": 28.3194,
      "mean_motion_rev_day": 15.5680042
    },
    {
      "epoch": "2026-04-30T13:54:08.831232Z",
      "apogee_km": 401.11668572225517,
      "perigee_km": 391.98251127523054,
      "latitude_deg": -4.1517845791978496e-05,
      "longitude_deg": 108.08818276366307,
      "height_km": 393.3139727487873,
      "semi_major_axis_km": 6774.686598498743,
      "eccentricity": 0.00067414,
      "inclination_deg": 53.0481,
      "raan_deg": 175.149,
      "arg_perigee_deg": 334.9205,
      "mean_anomaly_deg": 25.1477,
      "mean_motion_rev_day": 15.56929502
    },
    {
      "epoch": "2026-05-02T10:34:30.851904Z",
      "apogee_km": 400.3505266256334,
      "perigee_km": 390.81854567995924,
      "latitude_deg": -2.857092799405734e-05,
      "longitude_deg": 147.13419109641708,
      "height_km": 391.9360434256325,
      "semi_major_axis_km": 6773.721536152796,
      "eccentricity": 0.0007036,
      "inclination_deg": 53.0477,
      "raan_deg": 166.1214,
      "arg_perigee_deg": 342.6367,
      "mean_anomaly_deg": 17.4402,
      "mean_motion_rev_day": 15.57262241
    },
    {
      "epoch": "2026-05-03T14:17:53.237184Z",
      "apogee_km": 399.7000916243942,
      "perigee_km": 390.1906839519397,
      "latitude_deg": -2.0861373756419872e-05,
      "longitude_deg": 84.54758340165792,
      "height_km": 391.2093880774637,
      "semi_major_axis_km": 6773.082387788167,
      "eccentricity": 0.000702,
      "inclination_deg": 53.0472,
      "raan_deg": 160.5166,
      "arg_perigee_deg": 347.1616,
      "mean_anomaly_deg": 12.9215,
      "mean_motion_rev_day": 15.57482675
    }
  ]
}